EUTELSAT 8 WEST B       
1 40875U 15039B   25332.79169229 -.00000045  00000+0  00000+0 0  9990
2 40875   0.0688  10.8013 0004185 240.7791  93.3819  1.00271685 37642
EUTELSAT 9B             
1 41310U 16005A   25332.79507233  .00000082  00000+0  00000+0 0  9990
2 41310   0.0533  72.3272 0004570 188.8686 101.9818  1.00270343 36104
EUTELSAT 65 WEST A      
1 41382U 16014A   25332.78033890 -.00000256  00000+0  00000+0 0  9995
2 41382   0.0648  33.9054 0002509 217.3604  32.3897  1.00273114 35527
EUTELSAT 117 WEST B     
1 41589U 16038B   25332.55605715  .00000008  00000+0  00000+0 0  9990
2 41589   0.0088 143.7065 0000357 135.0931 232.1047  1.00273936 34656
EUTELSAT 172B           
1 42741U 17029B   25332.37475418  .00000014  00000+0  00000+0 0  9994
2 42741   0.0330 156.4854 0000090 323.4669 254.5017  1.00270020 31719
EUTELSAT 7C             
1 44334U 19034B   25332.22389494  .00000068  00000+0  00000+0 0  9993
2 44334   0.0770 183.8712 0003135  44.0700 287.0665  1.00269130  4821
EUTELSAT 5 WEST B       
1 44624U 19067A   25332.79229897 -.00000022  00000+0  00000+0 0  9994
2 44624   0.0637 344.1337 0003347 262.8150 101.2378  1.00271252 22426
EUTELSAT KONNECT        
1 45027U 20005B   25332.79472566  .00000071  00000+0  00000+0 0  9992
2 45027   0.0641 100.2990 0001210 181.5402  79.4213  1.00275314 22314
